{
    "links": {
        "self": "http://www.neowsapp.com/rest/v1/neo/3843703?api_key=iIulBulltgU6a56xZRHN4H3l9WmuAYTsLGpBGhQ2"
    },
    "id": "3843703",
    "neo_reference_id": "3843703",
    "name": "(2019 QF6)",
    "designation": "2019 QF6",
    "nasa_jpl_url": "http://ssd.jpl.nasa.gov/sbdb.cgi?sstr=3843703",
    "absolute_magnitude_h": 20.1,
    "estimated_diameter": {
        "kilometers": {
            "estimated_diameter_min": 0.2538370294,
            "estimated_diameter_max": 0.5675968529
        },
        "meters": {
            "estimated_diameter_min": 253.8370293645,
            "estimated_diameter_max": 567.5968528656
        },
        "miles": {
            "estimated_diameter_min": 0.1577269688,
            "estimated_diameter_max": 0.3526882241
        },
        "feet": {
            "estimated_diameter_min": 832.7986794202,
            "estimated_diameter_max": 1862.1944587557
        }
    },
    "is_potentially_hazardous_asteroid": false,
    "close_approach_data": [
        {
            "close_approach_date": "2019-09-02",
            "close_approach_date_full": "2019-Sep-02 10:37",
            "epoch_date_close_approach": 1567420620000,
            "relative_velocity": {
                "kilometers_per_second": "33.309447228",
                "kilometers_per_hour": "119914.0100209307",
                "miles_per_hour": "74509.9025043944"
            },
            "miss_distance": {
                "astronomical": "0.3407940699",
                "lunar": "132.5688931911",
                "kilometers": "50982066.965671113",
                "miles": "31678787.4475748394"
            },
            "orbiting_body": "Earth"
        }
    ],
    "orbital_data": {
        "orbit_id": "2",
        "orbit_determination_date": "2019-09-05 05:55:15",
        "first_observation_date": "2019-08-27",
        "last_observation_date": "2019-09-05",
        "data_arc_in_days": 9,
        "observations_used": 35,
        "orbit_uncertainty": "9",
        "minimum_orbit_intersection": ".203167",
        "jupiter_tisserand_invariant": "2.699",
        "epoch_osculation": "2458725.5",
        "eccentricity": ".524919914945195",
        "semi_major_axis": "2.466723964973184",
        "inclination": "59.8028572639498",
        "ascending_node_longitude": "166.7063344624137",
        "orbital_period": "1415.074342425369",
        "perihelion_distance": "1.171891431086186",
        "perihelion_argument": "205.8704487966176",
        "aphelion_distance": "3.761556498860182",
        "perihelion_time": "2458745.362729472706",
        "mean_anomaly": "354.9468502143015",
        "mean_motion": ".2544035950669401",
        "equinox": "J2000",
        "orbit_class": {
            "orbit_class_type": "AMO",
            "orbit_class_description": "Near-Earth asteroid orbits similar to that of 1221 Amor",
            "orbit_class_range": "1.017 AU < q (perihelion) < 1.3 AU"
        }
    },
    "is_sentry_object": false
}